NORAD_CAT_ID,OBJECT_NAME,OBJECT_TYPE,EPOCH,MEAN_MOTION,ECCENTRICITY,INCLINATION,RA_OF_ASC_NODE,ARG_OF_PERICENTER,MEAN_ANOMALY,BSTAR,MEAN_MOTION_DOT,MEAN_MOTION_DDOT,TLE_LINE0,TLE_LINE1,TLE_LINE2,SEMIMAJOR_AXIS,PERIOD,APOGEE,PERIGEE,DECAYED
53438.0,STARLINK-4526,PAYLOAD,2023-11-20 01:39:04,15.088417,0.0001679,53.2176,277.4605,87.3986,272.7198,9.031e-05,1.15e-05,0.0,0 STARLINK-4526,1 53438U 22097BC  23324.06879849  .00001150  00000-0  90310-4 0  9992,2 53438  53.2176 277.4605 0001679  87.3986 272.7198 15.08841700 71406,6917.875,95.437,540.902,538.579,0.0
53438.0,STARLINK-4526,PAYLOAD,2023-11-20 06:25:13,15.08850449,0.0001568,53.2177,276.5686,91.5759,268.5413,0.00011987,1.621e-05,0.0,0 STARLINK-4526,1 53438U 22097BC  23324.26751211  .00001621  00000-0  11987-3 0  9991,2 53438  53.2177 276.5686 0001568  91.5759 268.5413 15.08850449 71434,6917.848,95.437,540.798,538.629,0.0
53438.0,STARLINK-4526,PAYLOAD,2023-11-20 14:22:08,15.08847712,0.0001508,53.2178,275.0818,95.0857,265.0308,6.8184e-05,7.98e-06,0.0,0 STARLINK-4526,1 53438U 22097BC  23324.59871379  .00000798  00000-0  68184-4 0  9991,2 53438  53.2178 275.0818 0001508  95.0857 265.0308 15.08847712 71971,6917.857,95.437,540.765,538.679,0.0
53438.0,STARLINK-4526,PAYLOAD,2023-11-21 03:05:13,15.08846493,0.0001451,53.2175,272.7024,93.0239,267.0919,0.00010663,1.41e-05,0.0,0 STARLINK-4526,1 53438U 22097BC  23325.12863181  .00001410  00000-0  10663-3 0  9993,2 53438  53.2175 272.7024 0001451  93.0239 267.0919 15.08846493 71560,6917.861,95.437,540.729,538.722,0.0
53438.0,STARLINK-4526,PAYLOAD,2023-11-21 06:15:59,15.0885319,0.000157,53.218,272.1064,95.4093,264.7078,0.00015044,2.108e-05,0.0,0 STARLINK-4526,1 53438U 22097BC  23325.26110671  .00002108  00000-0  15044-3 0  9990,2 53438  53.2180 272.1064 0001570  95.4093 264.7078 15.08853190 72079,6917.84,95.437,540.791,538.619,0.0
53438.0,STARLINK-4526,PAYLOAD,2023-11-22 02:56:00,15.08846343,0.0001617,53.2167,268.2415,96.6382,263.4794,9.2589e-05,1.186e-05,0.0,0 STARLINK-4526,1 53438U 22097BC  23326.12223303  .00001186  00000-0  92589-4 0  9998,2 53438  53.2167 268.2415 0001617  96.6382 263.4794 15.08846343 71719,6917.861,95.437,540.845,538.607,0.0
53438.0,STARLINK-4526,PAYLOAD,2023-11-22 06:06:46,15.08851075,0.0001751,53.2161,267.6457,102.2725,257.8463,0.00015059,2.11e-05,0.0,0 STARLINK-4526,1 53438U 22097BC  23326.25471008  .00002110  00000-0  15059-3 0  9993,2 53438  53.2161 267.6457 0001751 102.2725 257.8463 15.08851075 72221,6917.847,95.437,540.923,538.5,0.0
53438.0,STARLINK-4526,PAYLOAD,2023-11-23 05:57:33,15.08851619,0.0001774,53.2184,263.1823,103.7056,256.4134,0.00014897,2.084e-05,0.0,0 STARLINK-4526,1 53438U 22097BC  23327.24830680  .00002084  00000-0  14897-3 0  9997,2 53438  53.2184 263.1823 0001774 103.7056 256.4134 15.08851619 71887,6917.845,95.437,540.937,538.483,0.0
53438.0,STARLINK-4526,PAYLOAD,2023-11-23 20:16:03,15.08827142,0.0001696,53.2172,260.5079,106.3642,253.7536,-0.00021906,-3.771e-05,0.0,0 STARLINK-4526,1 53438U 22097BC  23327.84447966 -.00003771  00000-0 -21906-3 0  9999,2 53438  53.2172 260.5079 0001696 106.3642 253.7536 15.08827142 71971,6917.92,95.438,540.958,538.611,0.0
53438.0,STARLINK-4526,PAYLOAD,2023-11-24 01:02:12,15.08827616,0.0001603,53.2174,259.6159,97.0499,263.0675,-0.00014608,-2.611e-05,0.0,0 STARLINK-4526,1 53438U 22097BC  23328.04320176 -.00002611  00000-0 -14608-3 0  9998,2 53438  53.2174 259.6159 0001603  97.0499 263.0675 15.08827616 72497,6917.918,95.438,540.892,538.674,0.0
53438.0,STARLINK-4526,PAYLOAD,2023-11-24 18:31:27,15.0883088,0.0001572,53.2175,256.3439,92.6903,267.427,9.1989e-05,1.176e-05,0.0,0 STARLINK-4526,1 53438U 22097BC  23328.77184832  .00001176  00000-0  91989-4 0  9996,2 53438  53.2175 256.3439 0001572  92.6903 267.4270 15.08830880 72608,6917.908,95.438,540.861,538.686,0.0
53438.0,STARLINK-4526,PAYLOAD,2023-11-25 00:53:00,15.08838914,0.0001523,53.2172,255.1578,100.4778,259.6385,0.00028401,4.235e-05,0.0,0 STARLINK-4526,1 53438U 22097BC  23329.03680638  .00004235  00000-0  28401-3 0  9998,2 53438  53.2172 255.1578 0001523 100.4778 259.6385 15.08838914 72156,6917.884,95.438,540.802,538.695,0.0
53438.0,STARLINK-4526,PAYLOAD,2023-11-26 02:19:09,15.0889011,0.0001457,53.2169,250.4004,87.4114,272.7045,0.0016753,0.00026512,0.0,0 STARLINK-4526,1 53438U 22097BC  23330.09663369  .00026512  00000-0  16753-2 0  9996,2 53438  53.2169 250.4004 0001457  87.4114 272.7045 15.08890110 72311,6917.727,95.434,540.6,538.584,0.0
53438.0,STARLINK-4526,PAYLOAD,2023-11-26 03:54:32,15.08886769,0.0001544,53.2171,250.1035,105.7998,254.3164,0.0013698,0.00021608,0.0,0 STARLINK-4526,1 53438U 22097BC  23330.16287133  .00021608  00000-0  13698-2 0  9991,2 53438  53.2171 250.1035 0001544 105.7998 254.3164 15.08886769 72814,6917.737,95.435,540.671,538.534,0.0
53438.0,STARLINK-4526,PAYLOAD,2023-11-26 18:13:01,15.08844934,0.0002388,53.217,247.4298,87.5706,272.556,-1.2554e-06,-3.08e-06,0.0,0 STARLINK-4526,1 53438U 22097BC  23330.75904056 -.00000308  00000-0 -12554-5 0  9995,2 53438  53.2170 247.4298 0002388  87.5706 272.5560 15.08844934 72410,6917.865,95.437,541.382,538.078,0.0
53438.0,STARLINK-4526,PAYLOAD,2023-11-27 02:09:57,15.08815823,0.0001374,53.2169,245.9369,77.0969,283.0176,-0.00034021,-5.695e-05,0.0,0 STARLINK-4526,1 53438U 22097BC  23331.09024952 -.00005695  00000-0 -34021-3 0  9996,2 53438  53.2169 245.9369 0001374  77.0969 283.0176 15.08815823 72469,6917.954,95.439,540.77,538.869,0.0
53438.0,STARLINK-4526,PAYLOAD,2023-11-27 18:03:49,15.08828172,0.0001282,53.2163,242.9622,81.607,278.5067,0.00038789,5.889e-05,0.0,0 STARLINK-4526,1 53438U 22097BC  23331.75265291  .00005889  00000-0  38789-3 0  9990,2 53438  53.2163 242.9622 0001282  81.6070 278.5067 15.08828172 72564,6917.917,95.438,540.668,538.895,0.0
53438.0,STARLINK-4526,PAYLOAD,2023-11-28 00:25:21,15.08869738,0.000154,53.2159,241.777,68.686,291.4296,0.0020291,0.00032179,0.0,0 STARLINK-4526,1 53438U 22097BC  23332.01761084  .00032179  00000-0  20291-2 0  9991,2 53438  53.2159 241.7770 0001540  68.6860 291.4296 15.08869738 72605,6917.789,95.436,540.72,538.589,0.0
53438.0,STARLINK-4526,PAYLOAD,2023-11-28 03:36:07,15.08886848,0.0001531,53.2158,241.1825,69.7972,290.3185,0.0024241,0.00038553,0.0,0 STARLINK-4526,1 53438U 22097BC  23332.15008676  .00038553  00000-0  24241-2 0  9998,2 53438  53.2158 241.1825 0001531  69.7972 290.3185 15.08886848 72623,6917.737,95.435,540.661,538.543,0.0
53438.0,STARLINK-4526,PAYLOAD,2023-11-28 17:54:35,15.08844478,0.0001089,53.2172,238.5075,354.412,5.686,3.2561e-05,2.31e-06,0.0,0 STARLINK-4526,1 53438U 22097BC  23332.74624577  .00000231  00000-0  32561-4 0  9995,2 53438  53.2172 238.5075 0001089 354.4120   5.6860 15.08844478 72713,6917.867,95.437,540.485,538.978,0.0
53438.0,STARLINK-4526,PAYLOAD,2023-11-28 22:40:45,15.08844265,0.0001188,53.2162,237.6178,47.2855,312.8237,0.00067235,0.0001043,0.0,0 STARLINK-4526,1 53438U 22097BC  23332.94496720  .00010430  00000-0  67235-3 0  9991,2 53438  53.2162 237.6178 0001188  47.2855 312.8237 15.08844265 73231,6917.867,95.437,540.554,538.911,0.0
53438.0,STARLINK-4526,PAYLOAD,2023-11-29 03:26:53,15.08859506,0.0001635,53.215,236.7184,118.5739,241.5417,0.00033593,5.065e-05,0.0,0 STARLINK-4526,1 53438U 22097BC  23333.14367984  .00005065  00000-0  33593-3 0  9991,2 53438  53.2150 236.7184 0001635 118.5739 241.5417 15.08859506 72775,6917.821,95.436,540.817,538.555,0.0
53438.0,STARLINK-4526,PAYLOAD,2023-11-30 03:17:41,15.0885084,0.0001707,53.2164,232.2593,111.5659,248.5516,0.00069276,0.00010758,0.0,0 STARLINK-4526,1 53438U 22097BC  23334.13728397  .00010758  00000-0  69276-3 0  9992,2 53438  53.2164 232.2593 0001707 111.5659 248.5516 15.08850840 72925,6917.847,95.437,540.893,538.531,0.0
53438.0,STARLINK-4526,PAYLOAD,2023-11-30 23:57:42,15.08839945,0.0001482,53.216,228.399,104.1503,255.9654,0.0003227,4.852e-05,0.0,0 STARLINK-4526,1 53438U 22097BC  23334.99841208  .00004852  00000-0  32270-3 0  9995,2 53438  53.2160 228.3990 0001482 104.1503 255.9654 15.08839945 73057,6917.881,95.438,540.771,538.72,0.0
53438.0,STARLINK-4526,PAYLOAD,2023-12-01 22:13:06,15.08855564,0.0001509,53.2158,224.2315,96.7649,263.3514,0.0013374,0.0002107,0.0,0 STARLINK-4526,1 53438U 22097BC  23335.92577022  .00021070  00000-0  13374-2 0  9993,2 53438  53.2158 224.2315 0001509  96.7649 263.3514 15.08855564 73689,6917.833,95.437,540.742,538.654,0.0
53438.0,STARLINK-4526,PAYLOAD,2023-12-02 02:59:15,15.08896952,0.0001519,53.216,223.3376,96.4359,263.6806,0.0028854,0.00046005,0.0,0 STARLINK-4526,1 53438U 22097BC  23336.12448425  .00046005  00000-0  28854-2 0  9994,2 53438  53.2160 223.3376 0001519  96.4359 263.6806 15.08896952 73228,6917.706,95.434,540.622,538.521,0.0
53438.0,STARLINK-4526,PAYLOAD,2023-12-02 20:28:30,15.08831278,0.0001738,53.2156,220.0713,113.9831,246.1344,0.0003675,5.564e-05,0.0,0 STARLINK-4526,1 53438U 22097BC  23336.85312916  .00005564  00000-0  36750-3 0  9999,2 53438  53.2156 220.0713 0001738 113.9831 246.1344 15.08831278 73330,6917.907,95.438,540.974,538.57,0.0
53438.0,STARLINK-4526,PAYLOAD,2023-12-02 22:03:53,15.08832192,0.0001404,53.216,219.7756,95.7679,264.3473,-0.00023927,-4.093e-05,0.0,0 STARLINK-4526,1 53438U 22097BC  23336.91936965 -.00004093  00000-0 -23927-3 0  9992,2 53438  53.2160 219.7756 0001404  95.7679 264.3473 15.08832192 73830,6917.904,95.438,540.741,538.798,0.0
53438.0,STARLINK-4526,PAYLOAD,2023-12-03 20:19:18,15.0881978,0.0001439,53.2156,215.6156,91.2771,268.8386,0.00014694,2.05e-05,0.0,0 STARLINK-4526,1 53438U 22097BC  23337.84674494  .00002050  00000-0  14694-3 0  9991,2 53438  53.2156 215.6156 0001439  91.2771 268.8386 15.08819780 73487,6917.942,95.439,540.803,538.812,0.0
53438.0,STARLINK-4526,PAYLOAD,2023-12-04 01:05:28,15.08827193,0.0001465,53.2154,214.7191,92.6848,267.4312,9.8241e-05,1.275e-05,0.0,0 STARLINK-4526,1 53438U 22097BC  23338.04546466  .00001275  00000-0  98241-4 0  9990,2 53438  53.2154 214.7191 0001465  92.6848 267.4312 15.08827193 74003,6917.92,95.438,540.798,538.771,0.0
